COSMOS 1933             
1 18958U 88020A   26041.16776888  .00003479  00000+0  17093-3 0  9998
2 18958  82.5122 278.1420 0003110 314.0105  46.0872 15.17745136 46058
SL-3 R/B                
1 19046U 88032B   26041.27592698  .00006394  00000+0  30148-3 0  9992
2 19046  97.5152  24.6410 0025250 333.7654  26.2299 15.19553632 47947
SL-16 R/B               
1 19120U 88039B   26041.21798737 -.00000031  00000+0  80967-5 0  9997
2 19120  71.0148 126.6397 0021064  16.2031 343.9763 14.19611595954483
COSMOS 1953             
1 19210U 88050A   26040.86343755  .00011030  00000+0  40243-3 0  9997
2 19210  82.5093 186.2144 0010736 218.2468 141.8011 15.27962113 33533
SL-8 R/B                
1 19257U 88053B   26040.86231286  .00000287  00000+0  10153-3 0  9995
2 19257  74.0481 163.7539 0020456 348.1087 155.4218 14.38898946972590
COSMOS 1975             
1 19573U 88093A   26040.75858831  .00010113  00000+0  37330-3 0  9994
2 19573  82.5220 145.7047 0010331 268.0750  91.9306 15.27577379 15142
SL-14 R/B               
1 19574U 88093B   26041.18394667  .00000461  00000+0  50236-4 0  9991
2 19574  82.5280  67.8719 0021977 126.6199 303.2106 14.85625012996958
SL-16 R/B               
1 19650U 88102B   26040.93346815  .00000286  00000+0  16851-3 0  9990
2 19650  70.9975 209.8944 0012512  47.3325 312.8850 14.16147843922965
INTERCOSMOS 24          
1 20261U 89080A   26041.24112662  .00000557  00000+0  16085-3 0  9992
2 20261  82.6066 122.2707 1187959 356.5656   2.7771 12.59519909663344
SL-14 R/B               
1 20262U 89080C   26040.86956997  .00000477  00000+0  14452-3 0  9994
2 20262  82.5945 191.0448 1229475 248.3648  98.2271 12.50459348656679
DELTA 1 R/B             
1 20323U 89089B   26041.16805993  .00000415  00000+0  11144-3 0  9991
2 20323  97.0725 252.9804 0068331 208.6414 151.1024 14.50640014891746
ARIANE 40 R/B           
1 20443U 90005H   26041.15589988  .00000281  00000+0  10304-3 0  9994
2 20443  98.3146 102.6295 0008935 289.4290  70.5932 14.39851822888845
