CCSDS_OMM_VERS = 2.0
CREATION_DATE  = 
ORIGINATOR     = 

OBJECT_NAME    = COSMOS 1933
OBJECT_ID      = 1988-020A
CENTER_NAME    = EARTH
REF_FRAME      = TEME
TIME_SYSTEM    = UTC
MEAN_ELEMENT_THEORY = SGP/SGP4

EPOCH          = 2026-02-10T04:01:35.231232
MEAN_MOTION    = 15.17745136
ECCENTRICITY   = .00031104
INCLINATION    = 82.5122
RA_OF_ASC_NODE = 278.1420
ARG_OF_PERICENTER = 314.0105
MEAN_ANOMALY   = 46.0872

EPHEMERIS_TYPE = 0
CLASSIFICATION_TYPE = U
NORAD_CAT_ID   = 18958
ELEMENT_SET_NO = 999
REV_AT_EPOCH   = 4605
BSTAR          = .17093088E-3
MEAN_MOTION_DOT = .3479E-4
MEAN_MOTION_DDOT = 0

CCSDS_OMM_VERS = 2.0
CREATION_DATE  = 
ORIGINATOR     = 

OBJECT_NAME    = SL-3 R/B
OBJECT_ID      = 1988-032B
CENTER_NAME    = EARTH
REF_FRAME      = TEME
TIME_SYSTEM    = UTC
MEAN_ELEMENT_THEORY = SGP/SGP4

EPOCH          = 2026-02-10T06:37:20.091072
MEAN_MOTION    = 15.19553632
ECCENTRICITY   = .00252501
INCLINATION    = 97.5152
RA_OF_ASC_NODE = 24.6410
ARG_OF_PERICENTER = 333.7654
MEAN_ANOMALY   = 26.2299

EPHEMERIS_TYPE = 0
CLASSIFICATION_TYPE = U
NORAD_CAT_ID   = 19046
ELEMENT_SET_NO = 999
REV_AT_EPOCH   = 4794
BSTAR          = .30148429E-3
MEAN_MOTION_DOT = .6394E-4
MEAN_MOTION_DDOT = 0

CCSDS_OMM_VERS = 2.0
CREATION_DATE  = 
ORIGINATOR     = 

OBJECT_NAME    = SL-16 R/B
OBJECT_ID      = 1988-039B
CENTER_NAME    = EARTH
REF_FRAME      = TEME
TIME_SYSTEM    = UTC
MEAN_ELEMENT_THEORY = SGP/SGP4

EPOCH          = 2026-02-10T05:13:54.108768
MEAN_MOTION    = 14.19611595
ECCENTRICITY   = .00210645
INCLINATION    = 71.0148
RA_OF_ASC_NODE = 126.6397
ARG_OF_PERICENTER = 16.2031
MEAN_ANOMALY   = 343.9763

EPHEMERIS_TYPE = 0
CLASSIFICATION_TYPE = U
NORAD_CAT_ID   = 19120
ELEMENT_SET_NO = 999
REV_AT_EPOCH   = 95448
BSTAR          = .8096676E-5
MEAN_MOTION_DOT = -.31E-6
MEAN_MOTION_DDOT = 0

CCSDS_OMM_VERS = 2.0
CREATION_DATE  = 
ORIGINATOR     = 

OBJECT_NAME    = COSMOS 1953
OBJECT_ID      = 1988-050A
CENTER_NAME    = EARTH
REF_FRAME      = TEME
TIME_SYSTEM    = UTC
MEAN_ELEMENT_THEORY = SGP/SGP4

EPOCH          = 2026-02-09T20:43:21.004320
MEAN_MOTION    = 15.27962113
ECCENTRICITY   = .0010736
INCLINATION    = 82.5093
RA_OF_ASC_NODE = 186.2144
ARG_OF_PERICENTER = 218.2468
MEAN_ANOMALY   = 141.8011

EPHEMERIS_TYPE = 0
CLASSIFICATION_TYPE = U
NORAD_CAT_ID   = 19210
ELEMENT_SET_NO = 999
REV_AT_EPOCH   = 3353
BSTAR          = .40243E-3
MEAN_MOTION_DOT = .1103E-3
MEAN_MOTION_DDOT = 0

CCSDS_OMM_VERS = 2.0
CREATION_DATE  = 
ORIGINATOR     = 

OBJECT_NAME    = SL-8 R/B
OBJECT_ID      = 1988-053B
CENTER_NAME    = EARTH
REF_FRAME      = TEME
TIME_SYSTEM    = UTC
MEAN_ELEMENT_THEORY = SGP/SGP4

EPOCH          = 2026-02-09T20:41:43.831104
MEAN_MOTION    = 14.38898946
ECCENTRICITY   = .0020456
INCLINATION    = 74.0481
RA_OF_ASC_NODE = 163.7539
ARG_OF_PERICENTER = 348.1087
MEAN_ANOMALY   = 155.4218

EPHEMERIS_TYPE = 0
CLASSIFICATION_TYPE = U
NORAD_CAT_ID   = 19257
ELEMENT_SET_NO = 999
REV_AT_EPOCH   = 97259
BSTAR          = .10153E-3
MEAN_MOTION_DOT = .287E-5
MEAN_MOTION_DDOT = 0

CCSDS_OMM_VERS = 2.0
CREATION_DATE  = 
ORIGINATOR     = 

OBJECT_NAME    = COSMOS 1975
OBJECT_ID      = 1988-093A
CENTER_NAME    = EARTH
REF_FRAME      = TEME
TIME_SYSTEM    = UTC
MEAN_ELEMENT_THEORY = SGP/SGP4

EPOCH          = 2026-02-09T18:12:22.029984
MEAN_MOTION    = 15.27577379
ECCENTRICITY   = .00103317
INCLINATION    = 82.5220
RA_OF_ASC_NODE = 145.7047
ARG_OF_PERICENTER = 268.0750
MEAN_ANOMALY   = 91.9306

EPHEMERIS_TYPE = 0
CLASSIFICATION_TYPE = U
NORAD_CAT_ID   = 19573
ELEMENT_SET_NO = 999
REV_AT_EPOCH   = 1514
BSTAR          = .37330033E-3
MEAN_MOTION_DOT = .10113E-3
MEAN_MOTION_DDOT = 0

CCSDS_OMM_VERS = 2.0
CREATION_DATE  = 
ORIGINATOR     = 

OBJECT_NAME    = SL-14 R/B
OBJECT_ID      = 1988-093B
CENTER_NAME    = EARTH
REF_FRAME      = TEME
TIME_SYSTEM    = UTC
MEAN_ELEMENT_THEORY = SGP/SGP4

EPOCH          = 2026-02-10T04:24:52.992288
MEAN_MOTION    = 14.85625012
ECCENTRICITY   = .00219775
INCLINATION    = 82.5280
RA_OF_ASC_NODE = 67.8719
ARG_OF_PERICENTER = 126.6199
MEAN_ANOMALY   = 303.2106

EPHEMERIS_TYPE = 0
CLASSIFICATION_TYPE = U
NORAD_CAT_ID   = 19574
ELEMENT_SET_NO = 999
REV_AT_EPOCH   = 99695
BSTAR          = .50236482E-4
MEAN_MOTION_DOT = .461E-5
MEAN_MOTION_DDOT = 0

CCSDS_OMM_VERS = 2.0
CREATION_DATE  = 
ORIGINATOR     = 

OBJECT_NAME    = SL-16 R/B
OBJECT_ID      = 1988-102B
CENTER_NAME    = EARTH
REF_FRAME      = TEME
TIME_SYSTEM    = UTC
MEAN_ELEMENT_THEORY = SGP/SGP4

EPOCH          = 2026-02-09T22:24:11.648160
MEAN_MOTION    = 14.16147843
ECCENTRICITY   = .0012512
INCLINATION    = 70.9975
RA_OF_ASC_NODE = 209.8944
ARG_OF_PERICENTER = 47.3325
MEAN_ANOMALY   = 312.8850

EPHEMERIS_TYPE = 0
CLASSIFICATION_TYPE = U
NORAD_CAT_ID   = 19650
ELEMENT_SET_NO = 999
REV_AT_EPOCH   = 92296
BSTAR          = .16851E-3
MEAN_MOTION_DOT = .286E-5
MEAN_MOTION_DDOT = 0

CCSDS_OMM_VERS = 2.0
CREATION_DATE  = 
ORIGINATOR     = 

OBJECT_NAME    = INTERCOSMOS 24
OBJECT_ID      = 1989-080A
CENTER_NAME    = EARTH
REF_FRAME      = TEME
TIME_SYSTEM    = UTC
MEAN_ELEMENT_THEORY = SGP/SGP4

EPOCH          = 2026-02-10T05:47:13.339968
MEAN_MOTION    = 12.59519909
ECCENTRICITY   = .11879595
INCLINATION    = 82.6066
RA_OF_ASC_NODE = 122.2707
ARG_OF_PERICENTER = 356.5656
MEAN_ANOMALY   = 2.7771

EPHEMERIS_TYPE = 0
CLASSIFICATION_TYPE = U
NORAD_CAT_ID   = 20261
ELEMENT_SET_NO = 999
REV_AT_EPOCH   = 66334
BSTAR          = .16085389E-3
MEAN_MOTION_DOT = .557E-5
MEAN_MOTION_DDOT = 0

CCSDS_OMM_VERS = 2.0
CREATION_DATE  = 
ORIGINATOR     = 

OBJECT_NAME    = SL-14 R/B
OBJECT_ID      = 1989-080C
CENTER_NAME    = EARTH
REF_FRAME      = TEME
TIME_SYSTEM    = UTC
MEAN_ELEMENT_THEORY = SGP/SGP4

EPOCH          = 2026-02-09T20:52:10.845408
MEAN_MOTION    = 12.50459348
ECCENTRICITY   = .1229475
INCLINATION    = 82.5945
RA_OF_ASC_NODE = 191.0448
ARG_OF_PERICENTER = 248.3648
MEAN_ANOMALY   = 98.2271

EPHEMERIS_TYPE = 0
CLASSIFICATION_TYPE = U
NORAD_CAT_ID   = 20262
ELEMENT_SET_NO = 999
REV_AT_EPOCH   = 65667
BSTAR          = .14452E-3
MEAN_MOTION_DOT = .477E-5
MEAN_MOTION_DDOT = 0

CCSDS_OMM_VERS = 2.0
CREATION_DATE  = 
ORIGINATOR     = 

OBJECT_NAME    = DELTA 1 R/B
OBJECT_ID      = 1989-089B
CENTER_NAME    = EARTH
REF_FRAME      = TEME
TIME_SYSTEM    = UTC
MEAN_ELEMENT_THEORY = SGP/SGP4

EPOCH          = 2026-02-10T04:02:00.377952
MEAN_MOTION    = 14.50640014
ECCENTRICITY   = .00683317
INCLINATION    = 97.0725
RA_OF_ASC_NODE = 252.9804
ARG_OF_PERICENTER = 208.6414
MEAN_ANOMALY   = 151.1024

EPHEMERIS_TYPE = 0
CLASSIFICATION_TYPE = U
NORAD_CAT_ID   = 20323
ELEMENT_SET_NO = 999
REV_AT_EPOCH   = 89174
BSTAR          = .11144173E-3
MEAN_MOTION_DOT = .415E-5
MEAN_MOTION_DDOT = 0

CCSDS_OMM_VERS = 2.0
CREATION_DATE  = 
ORIGINATOR     = 

OBJECT_NAME    = ARIANE 40 R/B
OBJECT_ID      = 1990-005H
CENTER_NAME    = EARTH
REF_FRAME      = TEME
TIME_SYSTEM    = UTC
MEAN_ELEMENT_THEORY = SGP/SGP4

EPOCH          = 2026-02-10T03:44:29.749632
MEAN_MOTION    = 14.39851822
ECCENTRICITY   = .00089359
INCLINATION    = 98.3146
RA_OF_ASC_NODE = 102.6295
ARG_OF_PERICENTER = 289.4290
MEAN_ANOMALY   = 70.5932

EPHEMERIS_TYPE = 0
CLASSIFICATION_TYPE = U
NORAD_CAT_ID   = 20443
ELEMENT_SET_NO = 999
REV_AT_EPOCH   = 88884
BSTAR          = .10304467E-3
MEAN_MOTION_DOT = .281E-5
MEAN_MOTION_DDOT = 0

